[{"OBJECT_NAME":"STARLINK-6088","OBJECT_ID":"2023-046F","EPOCH":"2026-03-09T22:00:01.999584","MEAN_MOTION":15.06752995,"ECCENTRICITY":0.00022331,"INCLINATION":43.0013,"RA_OF_ASC_NODE":157.9436,"ARG_OF_PERICENTER":264.7386,"MEAN_ANOMALY":92.2691,"EPHEMERIS_TYPE":0,"CLASSIFICATION_TYPE":"U","NORAD_CAT_ID":56098,"ELEMENT_SET_NO":999,"REV_AT_EPOCH":577,"BSTAR":4.5351091e-5,"MEAN_MOTION_DOT":4.74e-6,"MEAN_MOTION_DDOT":0},{"OBJECT_NAME":"SL-18 R\/B","OBJECT_ID":"2001-007B","EPOCH":"2026-03-09T23:25:11.323200","MEAN_MOTION":15.07301441,"ECCENTRICITY":0.00085554,"INCLINATION":97.6926,"RA_OF_ASC_NODE":87.6817,"ARG_OF_PERICENTER":353.225,"MEAN_ANOMALY":6.886,"EPHEMERIS_TYPE":0,"CLASSIFICATION_TYPE":"U","NORAD_CAT_ID":26703,"ELEMENT_SET_NO":999,"REV_AT_EPOCH":64619,"BSTAR":0.00021543689,"MEAN_MOTION_DOT":3.19e-5,"MEAN_MOTION_DDOT":0}]
